0 INSAT 2C
1 23731U 95067B   13282.32371628 -.00000151  00000-0  10000-3 0  7069
2 23731 010.1053 048.7508 0000705 158.6579 201.3557 00.99777131 65179
0 INSAT 2C
1 23731U 95067B   13284.32810361 -.00000135  00000-0  10000-3 0  7076
2 23731 010.1088 048.7273 0000736 160.6168 199.3995 00.99776722 65196
0 INSAT 2C
1 23731U 95067B   13284.32810361 -.00000135  00000-0  10000-3 0  7087
2 23731 010.1088 048.7273 0000736 160.6168 199.3995 00.99776722 65196
0 INSAT 2C
1 23731U 95067B   13285.33030097 -.00000126  00000-0  10000-3 0  7090
2 23731 010.1106 048.7156 0000765 175.5364 184.4799 00.99776548 65207
0 INSAT 2C
1 23731U 95067B   13286.33249409 -.00000117  00000-0  10000-3 0  7102
2 23731 010.1122 048.7039 0000795 174.8682 185.1456 00.99776367 65211
0 INSAT 2C
1 23731U 95067B   13286.33249409 -.00000117  00000-0  10000-3 0  7113
2 23731 010.1122 048.7039 0000795 174.8682 185.1456 00.99776367 65211
0 INSAT 2C
1 23731U 95067B   13286.33249953 -.00000117  00000-0  10000-3 0  7128
2 23731 010.1124 048.7037 0000841 178.3601 181.6520 00.99776329 65214
0 INSAT 2C
1 23731U 95067B   13288.33687111 -.00000096  00000-0  10000-3 0  7139
2 23731 010.1159 048.6802 0000890 188.9256 171.0754 00.99776061 65235
0 INSAT 2C
1 23731U 95067B   13288.33687111 -.00000096  00000-0  10000-3 0  7140
2 23731 010.1159 048.6802 0000890 188.9256 171.0754 00.99776061 65235
0 INSAT 2C
1 23731U 95067B   13289.33904548 -.00000084  00000-0  10000-3 0  7155
2 23731 010.1177 048.6684 0000873 187.5516 172.4403 00.99775962 65244
0 INSAT 2C
1 23731U 95067B   13290.34121585 -.00000073  00000-0  10000-3 0  7169
2 23731 010.1194 048.6567 0000859 186.3641 173.6172 00.99775884 65253
0 INSAT 2C
1 23731U 95067B   13291.34338839 -.00000061  00000-0  10000-3 0  7170
2 23731 010.1212 048.6447 0000831 181.8880 178.0829 00.99775823 65268
0 INSAT 2C
1 23731U 95067B   13291.34339217 -.00000061  00000-0  10000-3 0  7182
2 23731 010.1213 048.6447 0000762 183.2053 176.7655 00.99775807 65264
0 INSAT 2C
1 23731U 95067B   13292.34557257 -.00000049  00000-0  10000-3 0  7196
2 23731 010.1233 048.6329 0001043 199.3041 160.6537 00.99775749 65270
0 INSAT 2C
1 23731U 95067B   13293.34776468 -.00000037  00000-0  10000-3 0  7203
2 23731 010.1250 048.6210 0001050 199.2284 160.7252 00.99775735 65285
0 INSAT 2C
1 23731U 95067B   13293.34776742 -.00000037  00000-0  10000-3 0  7219
2 23731 010.1250 048.6210 0001050 199.2284 160.7262 00.99775735 65286
0 INSAT 2C
1 23731U 95067B   13295.35216353 -.00000013  00000-0  10000-3 0  7224
2 23731 010.1285 048.5976 0001031 199.0614 160.8909 00.99775789 65307
0 INSAT 2C
1 23731U 95067B   13295.35216353 -.00000013  00000-0  10000-3 0  7235
2 23731 010.1285 048.5976 0001031 199.0614 160.8909 00.99775789 65307
